{
  "type": "FeatureCollection",
  "features": [
    {
      "type": "Feature",
      "properties": {
        "norad_id": 34540,
        "name": "IRIDIUM 33 DEB",
        "group": "iridium-33-debris",
        "lat": 58.67444319620933,
        "lon": 118.66522580582645,
        "alt_km": 626.5246684955137,
        "timestamp": "2025-12-18T23:35:49.447474+00:00",
        "meta_object_name": "IRIDIUM 33 DEB",
        "meta_object_id": "1997-051JH",
        "meta_epoch": "2025-12-18T08:57:29.352960",
        "meta_mean_motion": 14.75435184,
        "meta_eccentricity": 0.00173002,
        "meta_inclination": 86.3103,
        "meta_ra_of_asc_node": 305.0304,
        "meta_arg_of_pericenter": 139.8381,
        "meta_mean_anomaly": 343.587,
        "meta_ephemeris_type": 0,
        "meta_classification_type": "U",
        "meta_norad_cat_id": 34540,
        "meta_element_set_no": 999,
        "meta_rev_at_epoch": 89104,
        "meta_bstar": 0.0013410572,
        "meta_mean_motion_dot": 9.16e-05,
        "meta_mean_motion_ddot": 0,
        "tle_line1": "1 34540U 97051JH  25352.37325640  .00009160  00000+0  13411-2 0  9992",
        "tle_line2": "2 34540  86.3103 305.0304 0017300 139.8381 343.5870 14.75435184891042"
      },
      "geometry": {
        "type": "Point",
        "coordinates": [
          118.66522580582645,
          58.67444319620933
        ]
      }
    },
    {
      "type": "Feature",
      "properties": {
        "norad_id": 34648,
        "name": "IRIDIUM 33 DEB",
        "group": "iridium-33-debris",
        "lat": -82.94542681826593,
        "lon": -111.2441602414872,
        "alt_km": 730.4783245918507,
        "timestamp": "2025-12-18T23:35:49.447485+00:00",
        "meta_object_name": "IRIDIUM 33 DEB",
        "meta_object_id": "1997-051JZ",
        "meta_epoch": "2025-12-18T13:46:37.352352",
        "meta_mean_motion": 14.1166623,
        "meta_eccentricity": 0.01808845,
        "meta_inclination": 86.3904,
        "meta_ra_of_asc_node": 279.59,
        "meta_arg_of_pericenter": 280.6676,
        "meta_mean_anomaly": 77.4184,
        "meta_ephemeris_type": 0,
        "meta_classification_type": "U",
        "meta_norad_cat_id": 34648,
        "meta_element_set_no": 999,
        "meta_rev_at_epoch": 85043,
        "meta_bstar": 0.0055375481,
        "meta_mean_motion_dot": 0.00011772,
        "meta_mean_motion_ddot": 0,
        "tle_line1": "1 34648U 97051JZ  25352.57404343  .00011772  00000+0  55375-2 0  9998",
        "tle_line2": "2 34648  86.3904 279.5900 0180884 280.6676  77.4184 14.11666230850434"
      },
      "geometry": {
        "type": "Point",
        "coordinates": [
          -111.2441602414872,
          -82.94542681826593
        ]
      }
    },
    {
      "type": "Feature",
      "properties": {
        "norad_id": 34651,
        "name": "IRIDIUM 33 DEB",
        "group": "iridium-33-debris",
        "lat": -64.03552346256247,
        "lon": 130.24938030390572,
        "alt_km": 849.1281266670358,
        "timestamp": "2025-12-18T23:35:49.447495+00:00",
        "meta_object_name": "IRIDIUM 33 DEB",
        "meta_object_id": "1997-051KC",
        "meta_epoch": "2025-12-18T03:41:38.471136",
        "meta_mean_motion": 14.25903582,
        "meta_eccentricity": 0.01422298,
        "meta_inclination": 86.2828,
        "meta_ra_of_asc_node": 138.2742,
        "meta_arg_of_pericenter": 186.7985,
        "meta_mean_anomaly": 173.1282,
        "meta_ephemeris_type": 0,
        "meta_classification_type": "U",
        "meta_norad_cat_id": 34651,
        "meta_element_set_no": 999,
        "meta_rev_at_epoch": 85973,
        "meta_bstar": 0.0025867185,
        "meta_mean_motion_dot": 6.871e-05,
        "meta_mean_motion_ddot": 0,
        "tle_line1": "1 34651U 97051KC  25352.15391749  .00006871  00000+0  25867-2 0  9998",
        "tle_line2": "2 34651  86.2828 138.2742 0142229 186.7985 173.1282 14.25903582859731"
      },
      "geometry": {
        "type": "Point",
        "coordinates": [
          130.24938030390572,
          -64.03552346256247
        ]
      }
    },
    {
      "type": "Feature",
      "properties": {
        "norad_id": 34652,
        "name": "IRIDIUM 33 DEB",
        "group": "iridium-33-debris",
        "lat": 77.70966885318016,
        "lon": -5.650060768175994,
        "alt_km": 696.4114268069134,
        "timestamp": "2025-12-18T23:35:49.447506+00:00",
        "meta_object_name": "IRIDIUM 33 DEB",
        "meta_object_id": "1997-051KD",
        "meta_epoch": "2025-12-18T10:49:30.707904",
        "meta_mean_motion": 14.62110612,
        "meta_eccentricity": 0.00255709,
        "meta_inclination": 86.3312,
        "meta_ra_of_asc_node": 337.4583,
        "meta_arg_of_pericenter": 277.3564,
        "meta_mean_anomaly": 241.5689,
        "meta_ephemeris_type": 0,
        "meta_classification_type": "U",
        "meta_norad_cat_id": 34652,
        "meta_element_set_no": 999,
        "meta_rev_at_epoch": 88567,
        "meta_bstar": 0.00077809219,
        "meta_mean_motion_dot": 3.949e-05,
        "meta_mean_motion_ddot": 0,
        "tle_line1": "1 34652U 97051KD  25352.45104986  .00003949  00000+0  77809-3 0  9994",
        "tle_line2": "2 34652  86.3312 337.4583 0025570 277.3564 241.5689 14.62110612885674"
      },
      "geometry": {
        "type": "Point",
        "coordinates": [
          -5.650060768175994,
          77.70966885318016
        ]
      }
    },
    {
      "type": "Feature",
      "properties": {
        "norad_id": 34690,
        "name": "IRIDIUM 33 DEB",
        "group": "iridium-33-debris",
        "lat": 35.38549689547414,
        "lon": -148.30037059669647,
        "alt_km": 711.8308754899363,
        "timestamp": "2025-12-18T23:35:49.447516+00:00",
        "meta_object_name": "IRIDIUM 33 DEB",
        "meta_object_id": "1997-051KM",
        "meta_epoch": "2025-12-18T10:00:51.155136",
        "meta_mean_motion": 14.55116306,
        "meta_eccentricity": 0.00101708,
        "meta_inclination": 86.378,
        "meta_ra_of_asc_node": 34.5242,
        "meta_arg_of_pericenter": 10.8179,
        "meta_mean_anomaly": 50.7531,
        "meta_ephemeris_type": 0,
        "meta_classification_type": "U",
        "meta_norad_cat_id": 34690,
        "meta_element_set_no": 999,
        "meta_rev_at_epoch": 88177,
        "meta_bstar": 0.00034845824,
        "meta_mean_motion_dot": 1.525e-05,
        "meta_mean_motion_ddot": 0,
        "tle_line1": "1 34690U 97051KM  25352.41725874  .00001525  00000+0  34846-3 0  9999",
        "tle_line2": "2 34690  86.3780  34.5242 0010170  10.8179  50.7531 14.55116306881775"
      },
      "geometry": {
        "type": "Point",
        "coordinates": [
          -148.30037059669647,
          35.38549689547414
        ]
      }
    },
    {
      "type": "Feature",
      "properties": {
        "norad_id": 34693,
        "name": "IRIDIUM 33 DEB",
        "group": "iridium-33-debris",
        "lat": 44.128171909809254,
        "lon": -55.686063327132125,
        "alt_km": 465.5384013395751,
        "timestamp": "2025-12-18T23:35:49.447526+00:00",
        "meta_object_name": "IRIDIUM 33 DEB",
        "meta_object_id": "1997-051KQ",
        "meta_epoch": "2025-12-17T03:29:01.779936",
        "meta_mean_motion": 15.28993867,
        "meta_eccentricity": 0.0012502,
        "meta_inclination": 86.3047,
        "meta_ra_of_asc_node": 301.6344,
        "meta_arg_of_pericenter": 45.3487,
        "meta_mean_anomaly": 327.2881,
        "meta_ephemeris_type": 0,
        "meta_classification_type": "U",
        "meta_norad_cat_id": 34693,
        "meta_element_set_no": 999,
        "meta_rev_at_epoch": 88982,
        "meta_bstar": 0.0037800508,
        "meta_mean_motion_dot": 0.00107985,
        "meta_mean_motion_ddot": 0,
        "tle_line1": "1 34693U 97051KQ  25351.14515949  .00107985  00000+0  37801-2 0  9991",
        "tle_line2": "2 34693  86.3047 301.6344 0012502  45.3487 327.2881 15.28993867889821"
      },
      "geometry": {
        "type": "Point",
        "coordinates": [
          -55.686063327132125,
          44.128171909809254
        ]
      }
    },
    {
      "type": "Feature",
      "properties": {
        "norad_id": 34696,
        "name": "IRIDIUM 33 DEB",
        "group": "iridium-33-debris",
        "lat": 28.883725467748675,
        "lon": -157.49271909027567,
        "alt_km": 622.6290230582408,
        "timestamp": "2025-12-18T23:35:49.447537+00:00",
        "meta_object_name": "IRIDIUM 33 DEB",
        "meta_object_id": "1997-051KT",
        "meta_epoch": "2025-12-18T13:46:17.310144",
        "meta_mean_motion": 14.65374938,
        "meta_eccentricity": 0.00738622,
        "meta_inclination": 86.1844,
        "meta_ra_of_asc_node": 24.8077,
        "meta_arg_of_pericenter": 147.8205,
        "meta_mean_anomaly": 4.7215,
        "meta_ephemeris_type": 0,
        "meta_classification_type": "U",
        "meta_norad_cat_id": 34696,
        "meta_element_set_no": 999,
        "meta_rev_at_epoch": 86758,
        "meta_bstar": 0.0032443033,
        "meta_mean_motion_dot": 0.00018298,
        "meta_mean_motion_ddot": 0,
        "tle_line1": "1 34696U 97051KT  25352.57381146  .00018298  00000+0  32443-2 0  9997",
        "tle_line2": "2 34696  86.1844  24.8077 0073862 147.8205   4.7215 14.65374938867585"
      },
      "geometry": {
        "type": "Point",
        "coordinates": [
          -157.49271909027567,
          28.883725467748675
        ]
      }
    }
  ]
}